[{"OBJECT_NAME":"STARLINK-3393","OBJECT_ID":"2022-005AE","EPOCH":"2026-03-09T22:35:04.653312","MEAN_MOTION":15.08842937,"ECCENTRICITY":0.00012416,"INCLINATION":53.218,"RA_OF_ASC_NODE":297.9942,"ARG_OF_PERICENTER":92.62,"MEAN_ANOMALY":267.4934,"EPHEMERIS_TYPE":0,"CLASSIFICATION_TYPE":"U","NORAD_CAT_ID":51132,"ELEMENT_SET_NO":999,"REV_AT_EPOCH":22876,"BSTAR":1.695093e-6,"MEAN_MOTION_DOT":-2.61e-6,"MEAN_MOTION_DDOT":0},{"OBJECT_NAME":"CZ-4B DEB","OBJECT_ID":"1999-057SZ","EPOCH":"2026-03-02T21:23:50.470368","MEAN_MOTION":14.9551257,"ECCENTRICITY":0.0057647,"INCLINATION":98.7518,"RA_OF_ASC_NODE":85.7766,"ARG_OF_PERICENTER":19.8773,"MEAN_ANOMALY":340.4672,"EPHEMERIS_TYPE":0,"CLASSIFICATION_TYPE":"U","NORAD_CAT_ID":39052,"ELEMENT_SET_NO":999,"REV_AT_EPOCH":72291,"BSTAR":0.0001718,"MEAN_MOTION_DOT":1.891e-5,"MEAN_MOTION_DDOT":0}]
